OBJECT_NAME,OBJECT_ID,EPOCH,MEAN_MOTION,ECCENTRICITY,INCLINATION,RA_OF_ASC_NODE,ARG_OF_PERICENTER,MEAN_ANOMALY,EPHEMERIS_TYPE,CLASSIFICATION_TYPE,NORAD_CAT_ID,ELEMENT_SET_NO,REV_AT_EPOCH,BSTAR,MEAN_MOTION_DOT,MEAN_MOTION_DDOT
BEIDOU-2 IGSO-5 (C10),2011-073A,2026-07-02T17:30:18.330912,1.00270596,.01145273,47.6496,271.3544,222.0502,141.5350,0,U,37948,999,5329,0,-.128E-5,0
LUCH 5A (SDCM/PRN 140),2011-074B,2026-07-10T21:14:35.390112,1.00272608,.0002557,8.8111,73.4586,58.7235,282.2335,0,U,37951,999,5328,0,-.5E-6,0
BEIDOU-2 G5 (C05),2012-008A,2026-07-11T01:51:42.922368,1.00269208,.0007359,3.6296,69.5473,270.3931,35.6687,0,U,38091,999,5260,0,.62E-6,0
BEIDOU-2 M3 (C11),2012-018A,2026-07-10T06:40:09.382368,1.86230078,.0020763,55.7367,304.0977,272.6276,87.1498,0,U,38250,999,9637,0,-.7E-6,0
BEIDOU-2 M4 (C12),2012-018B,2026-07-10T05:02:43.446048,1.86229687,.0012086,55.6367,303.3120,272.7348,87.1429,0,U,38251,999,9637,0,-.69E-6,0
SES-5 (EGNOS/PRN 136),2012-036A,2026-07-10T23:53:37.099392,1.00270349,.0002026,0.0450,320.0556,155.1602,177.0726,0,U,38652,999,4469,0,.41E-6,0
BEIDOU-2 M6 (C14),2012-050B,2026-07-10T10:57:49.480416,1.86230865,.0013046,56.5644,62.1251,1.0237,359.0425,0,U,38775,999,9374,0,-.46E-6,0
GSAT-10 (GAGAN/PRN 128),2012-051B,2026-07-11T01:58:34.764384,1.00271676,.0007422,0.1031,265.7226,187.1437,308.7455,0,U,38779,999,5033,0,-.157E-5,0
GPS BIIF-3  (PRN 24),2012-053A,2026-07-10T06:00:20.029248,2.00567808,.01816833,53.5890,142.6546,66.1329,295.7288,0,U,38833,999,9990,0,.35E-6,0
GSAT0103 (GALILEO-FM3),2012-055A,2026-07-09T18:23:01.882464,1.70473301,.00039458,55.8193,100.9259,309.3641,50.6099,0,U,38857,999,8539,0,-.19E-6,0
BEIDOU-2 G6 (C02),2012-059A,2026-07-11T01:58:49.740960,1.00273656,.0009064,4.4780,73.2667,326.7150,2.6673,0,U,38953,999,5014,0,-.172E-5,0
LUCH 5B (SDCM/PRN 125),2012-061A,2026-07-10T22:32:38.574240,1.00271022,.0003761,10.5315,49.6401,144.4487,56.6731,0,U,38977,999,4984,0,-.139E-5,0
COSMOS 2485 (747),2013-019A,2026-07-09T21:41:21.416640,2.13103398,.0022762,65.4318,72.8427,231.6212,128.2346,0,U,39155,999,10276,0,-.24E-6,0
GPS BIIF-4  (PRN 27),2013-023A,2026-07-11T02:45:34.430112,2.00563300,.0141389,54.4858,267.9980,51.1089,310.2118,0,U,39166,999,9636,0,.7E-7,0
IRNSS-1A,2013-034A,2026-07-10T17:17:25.711872,1.00281941,.0017567,35.7704,63.5328,183.4462,356.2994,0,U,39199,999,4760,0,.47E-6,0
GPS BIIF-5  (PRN 30),2014-008A,2026-07-10T14:50:14.056800,2.00561251,.0084147,53.6572,148.3641,231.5193,127.6945,0,U,39533,999,9015,0,.41E-6,0
ASTRA 5B (EGNOS/PRN 123),2014-011B,2026-07-10T12:00:24.203232,1.00271823,.00017849,0.0626,314.2374,162.6118,15.1666,0,U,39617,999,4490,0,.147E-5,0
COSMOS 2492 (754),2014-012A,2026-07-10T19:13:34.392000,2.13103306,.0010296,65.2826,313.1340,319.0354,40.8926,0,U,39620,999,9574,0,-.61E-6,0
IRNSS-1B,2014-017A,2026-07-10T17:17:10.737024,1.00274378,.0022328,28.8825,239.9967,191.5584,171.4704,0,U,39635,999,4503,0,.149E-5,0
LUCH 5V (SDCM/PRN 141),2014-023A,2026-07-11T02:01:56.942112,1.00275436,.0002056,5.1879,69.4921,75.1077,269.5638,0,U,39727,999,4459,0,-.267E-5,0
GPS BIIF-6  (PRN 06),2014-026A,2026-07-10T09:29:36.585312,2.00559176,.0038119,56.4859,330.6145,325.9139,33.8410,0,U,39741,999,8900,0,-.8E-6,0
COSMOS 2500 (755),2014-032A,2026-07-09T02:14:41.698752,2.13106082,.0008037,65.2189,312.9376,189.2565,170.7378,0,U,40001,999,9392,0,-.56E-6,0
GPS BIIF-7  (PRN 09),2014-045A,2026-07-10T23:39:41.842080,2.00559938,.0034257,55.3682,87.5167,118.3377,242.0421,0,U,40105,999,8655,0,-.38E-6,0
GSAT0201 (GALILEO 5),2014-050A,2026-07-10T01:18:12.802176,1.85519753,.16778151,48.8500,272.4979,180.2883,179.6634,0,U,40128,999,7874,0,-.22E-6,0
GSAT0202 (GALILEO 6),2014-050B,2026-07-10T07:26:04.375968,1.85520571,.16790215,48.8671,271.5730,181.0029,178.6755,0,U,40129,999,8091,0,-.18E-6,0
IRNSS-1C,2014-061A,2026-07-10T19:07:56.330400,1.00273045,.0022146,6.5761,88.4824,4.9478,205.2945,0,U,40269,999,4292,0,-.16E-5,0
GPS BIIF-8  (PRN 03),2014-068A,2026-07-08T20:37:58.928448,2.00577411,.00674461,57.0024,30.1204,71.3730,289.4121,0,U,40294,999,8564,0,-.5E-6,0
COSMOS 2501 (702K),2014-075A,2026-07-10T07:03:54.818208,2.13101344,.00226508,63.6181,189.5721,212.5784,147.3100,0,U,40315,999,9034,0,.118E-5,0
GPS BIIF-9  (PRN 26),2015-013A,2026-07-10T11:55:36.493824,2.00549902,.0110191,53.1665,203.2135,40.3325,320.5274,0,U,40534,999,8229,0,.11E-5,0
GSAT0203 (GALILEO 7),2015-017A,2026-07-10T02:08:55.601088,1.70476121,.0002503,56.7788,340.9723,258.1316,101.8369,0,U,40544,999,6959,0,-.8E-6,0
GSAT0204 (GALILEO 8),2015-017B,2026-07-10T08:17:21.294240,1.70475622,.0002638,56.7851,340.9839,235.0424,124.9287,0,U,40545,999,3264,0,-.81E-6,0
